SWARM B                 
1 39451U 13067A   26162.24174911  .00002876  00000+0  10244-3 0  9991
2 39451  87.7437 344.1239 0003376  88.5147 271.6489 15.28514499682335
SWARM A                 
1 39452U 13067B   26162.21889773  .00009169  00000+0  15824-3 0  9999
2 39452  87.3335  58.4583 0002983  93.6497 266.5105 15.50832019705323
SWARM C                 
1 39453U 13067C   26162.21877989  .00009212  00000+0  15897-3 0  9995
2 39453  87.3334  57.0397 0002974  93.5171 266.6430 15.50834474705283
BRITE-CA1 (TORONTO)     
1 40020U 14033L   26162.19454943  .00000573  00000+0  94016-4 0  9991
2 40020  97.9731 291.2332 0077355 296.5409  62.7884 14.72668302641339
OCO 2                   
1 40059U 14035A   26162.18122037  .00000323  00000+0  81773-4 0  9999
2 40059  98.2018 103.5658 0001490  86.2831 273.8537 14.57106256635172
BRITE-PL2 (HEWELIUSZ)   
1 40119U 14049B   26162.21384170  .00001207  00000+0  11691-3 0  9996
2 40119  97.9092 274.1682 0015132 126.1133 234.1491 14.94575015640557
MMS 1                   
1 40482U 15011A   26162.33335648 -.00000039  00000+0  00000+0 0  9999
2 40482  72.0789 348.8750 8320531 167.3638  61.1445  0.28358355  1397
MMS 2                   
1 40483U 15011B   26162.33335648 -.00000039  00000+0  00000+0 0  9990
2 40483  72.0790 348.8771 8321315 167.3695  61.1330  0.28358380  1398
MMS 3                   
1 40484U 15011C   26162.33335648 -.00000039  00000+0  00000+0 0  9991
2 40484  72.0822 348.8817 8320499 167.3640  61.1290  0.28358325  1392
MMS 4                   
1 40485U 15011D   26162.33335648 -.00000039  00000+0  00000+0 0  9992
2 40485  72.0790 348.8769 8320077 167.3703  61.1231  0.28359869  1394
ASTROSAT                
1 40930U 15052A   26162.23865531  .00001431  00000+0  92453-4 0  9994
2 40930   5.9953 198.1766 0008434 308.2064  51.7305 14.82497266578942
DAMPE                   
1 41173U 15078A   26162.28525852  .00001146  00000+0  41078-4 0  9996
2 41173  97.4562 167.7233 0013784  95.5373 264.7441 15.30769918583648
PISAT                   
1 41784U 16059B   26162.01358544  .00000783  00000+0  14095-3 0  9991
2 41784  97.8178 162.7317 0027925 223.1111 136.7909 14.68973040518831
HXMT (HUIYAN)           
1 42758U 17034A   26162.27999470  .00003730  00000+0  18740-3 0  9990
2 42758  43.0133 215.9336 0030207 108.2562 252.1577 15.18438770496762
FLYING LAPTOP           
1 42831U 17042G   26162.31957682  .00003348  00000+0  26502-3 0  9995
2 42831  97.4660 318.0797 0019275 140.7203 219.5424 15.01107587485579
ZHANGHENG 1-01 (CSES-1) 
1 43194U 18015C   26162.28299753  .00005870  00000+0  26911-3 0  9999
2 43194  97.6862 327.8243 0017078 288.6366  71.3014 15.20734533463745
SALSAT                  
1 46495U 20068K   26162.25849645  .00006276  00000+0  22076-3 0  9994
2 46495  97.8851 164.9624 0008555 332.6699  27.4089 15.29713226314456
IXPE                    
1 49954U 21121A   26162.33335648  .00010672  00000+0  57853-3 0  9996
2 49954   0.2321   1.7465 0007454 347.7965  92.1486 15.10195380  5597
SMILE                   
1 69123U 26109A   26144.65318427 -.00001976  00000+0 -42379-3 0  9994
2 69123  70.0007 229.2745 0009123 259.5159 100.4951 14.57062785   802
