OBJECT_NAME,OBJECT_ID,EPOCH,MEAN_MOTION,ECCENTRICITY,INCLINATION,RA_OF_ASC_NODE,ARG_OF_PERICENTER,MEAN_ANOMALY,EPHEMERIS_TYPE,CLASSIFICATION_TYPE,NORAD_CAT_ID,ELEMENT_SET_NO,REV_AT_EPOCH,BSTAR,MEAN_MOTION_DOT,MEAN_MOTION_DDOT
SWARM B,2013-067A,2026-06-11T05:48:07.123104,15.28514499,.00033769,87.7437,344.1239,88.5147,271.6489,0,U,39451,999,68233,.10244339E-3,.2876E-4,0
SWARM A,2013-067B,2026-06-11T05:15:12.763872,15.50832019,.00029837,87.3335,58.4583,93.6497,266.5105,0,U,39452,999,70532,.15823501E-3,.9169E-4,0
SWARM C,2013-067C,2026-06-11T05:15:02.582496,15.50834474,.00029748,87.3334,57.0397,93.5171,266.6430,0,U,39453,999,70528,.15897155E-3,.9212E-4,0
BRITE-CA1 (TORONTO),2014-033L,2026-06-11T04:40:09.070752,14.72668302,.00773551,97.9731,291.2332,296.5409,62.7884,0,U,40020,999,64133,.94016038E-4,.573E-5,0
OCO 2,2014-035A,2026-06-11T04:20:57.439968,14.57106256,.000149,98.2018,103.5658,86.2831,273.8537,0,U,40059,999,63517,.81773333E-4,.323E-5,0
BRITE-PL2 (HEWELIUSZ),2014-049B,2026-06-11T05:07:55.922880,14.94575015,.0015132,97.9092,274.1682,126.1133,234.1491,0,U,40119,999,64055,.11690584E-3,.1207E-4,0
MMS 1,2015-011A,2026-06-11T08:00:01.999872,0.28358355,.83205315,72.0789,348.8750,167.3638,61.1445,0,U,40482,999,139,0,-.39E-6,0
MMS 2,2015-011B,2026-06-11T08:00:01.999872,0.28358380,.8321315,72.0790,348.8771,167.3695,61.1330,0,U,40483,999,139,0,-.39E-6,0
MMS 3,2015-011C,2026-06-11T08:00:01.999872,0.28358325,.83204997,72.0822,348.8817,167.3640,61.1290,0,U,40484,999,139,0,-.39E-6,0
MMS 4,2015-011D,2026-06-11T08:00:01.999872,0.28359869,.83200777,72.0790,348.8769,167.3703,61.1231,0,U,40485,999,139,0,-.39E-6,0
ASTROSAT,2015-052A,2026-06-11T05:43:39.818784,14.82497266,.00084341,5.9953,198.1766,308.2064,51.7305,0,U,40930,999,57894,.92453219E-4,.1431E-4,0
DAMPE,2015-078A,2026-06-11T06:50:46.336128,15.30769918,.00137846,97.4562,167.7233,95.5373,264.7441,0,U,41173,999,58364,.41078496E-4,.1146E-4,0
PISAT,2016-059B,2026-06-11T00:19:33.782016,14.68973040,.0027925,97.8178,162.7317,223.1111,136.7909,0,U,41784,999,51883,.14094525E-3,.783E-5,0
HXMT (HUIYAN),2017-034A,2026-06-11T06:43:11.542080,15.18438770,.00302071,43.0133,215.9336,108.2562,252.1577,0,U,42758,999,49676,.18739982E-3,.373E-4,0
FLYING LAPTOP,2017-042G,2026-06-11T07:40:11.437248,15.01107587,.00192752,97.4660,318.0797,140.7203,219.5424,0,U,42831,999,48557,.26502386E-3,.3348E-4,0
ZHANGHENG 1-01 (CSES-1),2018-015C,2026-06-11T06:47:30.986592,15.20734533,.00170788,97.6862,327.8243,288.6366,71.3014,0,U,43194,999,46374,.269107E-3,.587E-4,0
SALSAT,2020-068K,2026-06-11T06:12:14.093280,15.29713226,.00085551,97.8851,164.9624,332.6699,27.4089,0,U,46495,999,31445,.22075972E-3,.6276E-4,0
IXPE,2021-121A,2026-06-11T08:00:01.999872,15.10195380,.00074548,0.2321,1.7465,347.7965,92.1486,0,U,49954,999,559,.57852572E-3,.10672E-3,0
SMILE,2026-109A,2026-05-24T15:40:35.120928,14.57062785,.00091232,70.0007,229.2745,259.5159,100.4951,0,U,69123,999,80,-.42378883E-3,-.1976E-4,0
